LANDSAT 9               
1 49260U 21088A   23222.61740867  .00000483  00000+0  11725-3 0  9993
2 49260  98.2268 291.8502 0001444 106.9364 253.1993 14.57109301 99312
